[{"OBJECT_NAME":"STARLINK-4082","OBJECT_ID":"2022-053C","EPOCH":"2026-03-09T11:54:30.769344","MEAN_MOTION":15.08840906,"ECCENTRICITY":0.0001454,"INCLINATION":53.2172,"RA_OF_ASC_NODE":154.9911,"ARG_OF_PERICENTER":104.3967,"MEAN_ANOMALY":255.7187,"EPHEMERIS_TYPE":0,"CLASSIFICATION_TYPE":"U","NORAD_CAT_ID":52658,"ELEMENT_SET_NO":999,"REV_AT_EPOCH":21120,"BSTAR":3.1752167e-5,"MEAN_MOTION_DOT":2.17e-6,"MEAN_MOTION_DDOT":0},{"OBJECT_NAME":"CZ-4C R\/B","OBJECT_ID":"2018-031F","EPOCH":"2026-03-09T18:17:36.260736","MEAN_MOTION":15.22605712,"ECCENTRICITY":0.00804945,"INCLINATION":98.1311,"RA_OF_ASC_NODE":341.6719,"ARG_OF_PERICENTER":21.712,"MEAN_ANOMALY":338.7495,"EPHEMERIS_TYPE":0,"CLASSIFICATION_TYPE":"U","NORAD_CAT_ID":43264,"ELEMENT_SET_NO":999,"REV_AT_EPOCH":43612,"BSTAR":0.00044368098,"MEAN_MOTION_DOT":0.00011203,"MEAN_MOTION_DDOT":0}]
